#   ARIANE 42P+3 R/B    ## fig Lyddane bug at > 280.5 min for AcTan()
# 0 720 20
1 23599U 95029B   06171.76535463  .00085586  12891-6  12956-2 0  2905
2 23599   6.9327   0.2849 5782022 274.4436  25.2425  4.47796565123555
